MAKERSAT 0              
1 43016U 17073D   26168.63711396  .00013770  00000+0  37519-3 0  9996
2 43016  97.4617  51.1594 0105075 271.3551  87.5656 15.32110935466538
SIRION PATHFINDER-2     
1 43759U 18099B   26168.64423277  .00003356  00000+0  18548-3 0  9998
2 43759  97.4248 217.6909 0007179 303.3569  56.6975 15.14551067412696
CORVUS BC4              
1 43767U 18099K   26168.65142096  .00003509  00000+0  20509-3 0  9995
2 43767  97.4063 211.6182 0008204  11.8470 348.2952 15.12499738412474
M2 PATHFINDER           
1 45727U 20037E   26168.57887413  .00001317  00000+0  98040-4 0  9999
2 45727  97.8146 359.8151 0012526 144.9775 215.2277 15.04677114325559
NETSAT-4                
1 46504U 20068U   26167.99517375  .00014852  00000+0  32924-3 0  9995
2 46504  97.8600 176.2206 0003869 339.1494  20.9595 15.43860202315745
NETSAT-3                
1 46505U 20068V   26168.52021461  .00014868  00000+0  34277-3 0  9992
2 46505  97.8649 175.0036 0004166   0.5703 359.5547 15.42688001315731
NETSAT-1                
1 46506U 20068W   26168.52664457  .00009573  00000+0  28756-3 0  9993
2 46506  97.8743 169.3378 0004996  31.5449 328.6092 15.34649788315354
NETSAT-2                
1 46507U 20068X   26168.48856875  .00018610  00000+0  38293-3 0  9995
2 46507  97.8608 176.6489 0003412  26.1763 333.9657 15.46009035315781
GREENCUBE (IO-117)      
1 53109U 22080E   26164.29338770 -.00000003  00000+0  00000+0 0  9990
2 53109  70.1444 299.5995 0008910 290.4576  69.5127  6.42583230 91811
SITRO-AIS 5 (KATYS)     
1 57176U 23091L   26168.85508141  .00010401  00000+0  36575-3 0  9990
2 57176  97.5057 232.7608 0012771 101.3708 258.8967 15.29470654164444
SITRO-AIS 6 (CHIRKIN)   
1 57192U 23091AC  26168.83556938  .00008390  00000+0  32889-3 0  9991
2 57192  97.5064 231.8567 0013098 104.4673 255.8019 15.25945758164388
SITRO-AIS 8 (ANOKHIN)   
1 57193U 23091AD  26168.80563027  .00012419  00000+0  40160-3 0  9994
2 57193  97.5052 234.3019 0011773  98.1600 262.0977 15.32151081164540
SITRO-AIS 7 (FARTUSHNIY)
1 57194U 23091AE  26168.83885075  .00008066  00000+0  31930-3 0  9996
2 57194  97.5061 231.6849 0012948 105.4609 254.8060 15.25633459164377
SITRO-AIS 10 (BURDAEV)  
1 57199U 23091AK  26168.83457512  .00016478  00000+0  43330-3 0  9995
2 57199  97.5079 239.3922 0007455  78.5311 281.6771 15.38633321164868
SITRO-AIS 9 (SHCHUKIN)  
1 57201U 23091AM  26168.86118184  .00016150  00000+0  43152-3 0  9990
2 57201  97.5077 239.1489 0007717  78.3563 281.8548 15.38141330164851
SITRO-AIS 12 (SMIRENNIY)
1 57204U 23091AQ  26168.85167479  .00015816  00000+0  41873-3 0  9999
2 57204  97.5091 239.6066 0007248  73.5329 286.6712 15.38434478164878
SITRO-AIS 11 (SHEFFER)  
1 57208U 23091AU  26168.79988097  .00016855  00000+0  43994-3 0  9993
2 57208  97.5088 239.8008 0007107  73.6964 286.5062 15.38857760164887
SITRO-AIS 25            
1 59066U 24039R   26168.84516164  .00002226  00000+0  17552-3 0  9996
2 59066  95.3905 235.5448 0143375 326.4267  32.7932 14.93515877124826
SITRO-AIS 26            
1 59067U 24039S   26168.84662416  .00002194  00000+0  17387-3 0  9999
2 59067  95.3906 235.4432 0143724 327.0135  32.2183 14.93311807124818
SITRO-AIS 27            
1 59068U 24039T   26168.88367185  .00001931  00000+0  15206-3 0  9995
2 59068  95.3913 235.7408 0142711 325.5231  33.6797 14.93734042124847
SITRO-AIS 28            
1 59071U 24039U   26168.86110259  .00002488  00000+0  19497-3 0  9999
2 59071  95.3911 235.7724 0142570 325.4208  33.7806 14.93766664124843
GRBBETA                 
1 60237U 24128C   26168.48551437  .00002424  00000+0  17435-3 0  9999
2 60237  61.9882 215.2195 0040617 134.7304 225.7108 15.06640908106314
OOV-CUBE (TUBSAT-30)    
1 60240U 24128F   26168.65432346  .00001478  00000+0  12352-3 0  9990
2 60240  61.9933 223.9441 0044583 133.8615 226.6174 15.02775098106189
ROBUSTA-3A (MEDITERRAN*)
1 60243U 24128J   26168.59788154  .00004093  00000+0  24768-3 0  9997
2 60243  61.9845 206.7918 0041354 128.0239 232.4601 15.11679517106485
LASARSAT                
1 62391U 24247Q   26167.97623210  .00026221  00000+0  52389-3 0  9994
2 62391  44.9742 263.4006 0008180 330.0323  30.0098 15.46364825 83280
CROCUBE                 
1 62394U 24247T   26168.68403663  .00028750  00000+0  53655-3 0  9990
2 62394  44.9716 256.7472 0007968 338.3414  21.7139 15.48292245 83428
FORESAIL-1 PRIME        
1 66778U 25276DS  26168.72132939  .00003751  00000+0  18399-3 0  9993
2 66778  97.4199 241.9826 0003962 102.4588 257.7090 15.18706701 30486
KNACKSAT-2              
1 67683U 98067XZ  26168.60673955  .00040994  00000+0  49993-3 0  9996
2 67683  51.6314 292.3670 0009088 217.1010 142.9356 15.60014370 20344
